ATS 1                   
1 02608U 66110A   12352.35720075 -.00000269  00000-0  10000-3 0  3820
2 02608   5.7641 305.2613 0006540 192.2202 167.8862  1.00397110 85344
ATS 3                   
1 03029U 67111A   12351.91741178 -.00000104  00000-0  10000-3 0   261
2 03029   7.5415 310.7125 0017053  85.6032 274.6711  1.00272042165207
ORIZURU (DEBUT)         
1 20479U 90013B   12354.75051237  .00000033  00000-0  13831-3 0  4271
2 20479  99.0554  52.2454 0539746 140.9700 223.1668 12.83740017 71473
SURFSAT                 
1 23711U 95059B   12354.41508126 -.00000194  00000-0 -30134-3 0  2560
2 23711 100.3914 338.7570 0368411  79.0281 285.2052 13.12613862820521
MAQSAT H                
1 25023U 97066A   12353.30293126  .00000184  00000-0  16208-2 0  1815
2 25023   7.5657 217.1521 6493986 124.9679 314.0105  3.09644300171019
MAQSAT B                
1 25024U 97066B   12353.25338807 -.00000132  00000-0 -84426-3 0  2023
2 25024   7.6072 214.2697 6503785 129.9053 308.2854  3.08783572170800
TEAMSAT                 
1 25025U 97066C   12350.12307270  .00000012  00000-0  50664-3 0  1837
2 25025   7.6432 235.1575 6510670  89.2564 339.2658  3.07926803170232
OPAL (OO-38)            
1 26063U 00004C   12354.17324176  .00000065  00000-0  42568-4 0  5724
2 26063 100.2176  30.1895 0036347 254.3391 105.3774 14.36143083675796
FALCONSAT               
1 26064U 00004D   12355.45817323  .00000168  00000-0  78214-4 0  5347
2 26064 100.2199  28.8480 0037602 260.4748  99.2188 14.35666363675784
PICOSAT 1 & 2 [TETHERED]
1 26080U 00004H   12354.56106527  .00000364  00000-0  13045-3 0   144
2 26080 100.1967  65.5284 0032149 174.4707 185.6832 14.41184038675983
PICOSAT 3               
1 26091U 00004J   12354.80432425  .00000951  00000-0  28779-3 0  6713
2 26091 100.1877  84.3888 0031381 116.8926 243.5472 14.45045466676388
PICOSAT 4               
1 26092U 00004K   12355.14029005  .00000535  00000-0  18266-3 0  4859
2 26092 100.1892  58.7866 0035331 166.8679 193.3449 14.41277681675282
PICOSAT 5               
1 26093U 00004L   12354.33122966  .00001443  00000-0  41211-3 0  4057
2 26093 100.1812  94.0747 0032315  91.2989 269.1891 14.46852004677154
PICOSAT 6               
1 26094U 00004M   12353.64828757  .00000380  00000-0  13723-3 0  4632
2 26094 100.1970  54.3040 0035550 186.8146 173.2567 14.40509776674482
SNAP 1                  
1 26386U 00033C   12354.75933634  .00000739  00000-0  14334-3 0  7957
2 26386  98.2141  54.6653 0012246 129.4377 230.7912 14.66146417666865
PICOSAT 9               
1 26930U 01043B   12354.41368171  .00000026  00000-0  41925-4 0  1999
2 26930  67.0009 331.9057 0007573 225.5929 134.4545 14.30247442585946
PROBA-1                 
1 26958U 01049B   12355.09744965  .00001229  00000-0  12158-3 0  6041
2 26958  97.4595  13.8132 0080695  62.3803 298.5603 14.91213608606739
BIRD 2                  
1 26959U 01049C   12355.45790663  .00003846  00000-0  18944-3 0  3951
2 26959  97.8823 202.3328 0014229   5.2600 110.0044 15.18536765616113
CUTE-1 (CO-55)          
1 27844U 03031E   12354.02673936  .00000218  00000-0  12038-3 0  5357
2 27844  98.7017 359.7213 0010438  52.0669 308.1436 14.21132004491145
CANX-1                  
1 27847U 03031H   12354.53213437  .00000179  00000-0  10214-3 0  4474
2 27847  98.6893   0.4689 0009811  28.8600 331.3121 14.21344125491288
CUBESAT XI-IV (CO-57)   
1 27848U 03031J   12353.57059888  .00000168  00000-0  97696-4 0  4834
2 27848  98.7105 358.6923 0010409  57.8931 302.3269 14.20868916491019
NAXING 1                
1 28221U 04012B   12354.54504067  .00000964  00000-0  10641-3 0  3873
2 28221  97.4913 330.8404 0009978 262.5354  97.4730 14.89553151470915
ST5-A                   
1 28980U 06008A   12355.13313514  .00013089  00000-0  71206-3 0  1428
2 28980 105.6409  28.3423 2251995 126.8609 256.0731 10.83265900262076
ST5-B                   
1 28981U 06008B   12354.92113215  .00025045  20646-5  72116-3 0  1644
2 28981 105.4904  94.0055 2110359  28.8934 341.4034 11.21962276265763
ST5-C                   
1 28982U 06008C   12353.25361474  .00019205  17712-5  67897-3 0  2273
2 28982 105.5283  72.2021 2159214  64.3588 316.4334 11.09030335264345
GENESIS 1               
1 29252U 06029A   12354.88216976  .00002053  00000-0  14730-3 0  7816
2 29252  64.5094 208.3948 0032205 215.9250 143.9703 15.07001188353739
FALCONSAT-3             
1 30776U 07006E   12355.06370818  .00004440  00000-0  27643-3 0  5112
2 30776  35.4325 220.2382 0001149 237.9374 122.1233 15.09151716318334
GENESIS 2               
1 31789U 07028A   12354.21651403  .00002452  00000-0  17171-3 0  5272
2 31789  64.5073 243.8203 0056121 264.2172  95.2546 15.06589230300807
APRIZESAT 4             
1 35684U 09041D   12354.79909367  .00000914  00000-0  13506-3 0   684
2 35684  98.0587 265.4748 0049116 341.5529  18.3918 14.76921468182819
APRIZESAT 3             
1 35686U 09041F   12354.82061850  .00001051  00000-0  12749-3 0   834
2 35686  98.0991 280.3231 0077140 305.5703  53.8339 14.83825690183635
PROBA-2                 
1 36037U 09059B   12355.12557067 -.00000045  00000-0  00000+0 0    47
2 36037  98.2943 183.3282 0013239 345.3583  14.7254 14.52310609166021
PRISMA (MANGO)          
1 36599U 10028B   12355.27711431  .00000100  00000-0  43640-4 0  4116
2 36599  98.3113 165.0990 0042184 302.7718  56.9364 14.41313206132314
PRISMA (TANGO)          
1 36827U 10028F   12355.27712009  .00000095  00000-0  42373-4 0    90
2 36827  98.3100 165.0957 0042362 302.9535  56.7619 14.41311997124063
APRIZESAT 5             
1 37792U 11044E   12355.13486975  .00000587  00000-0  97652-4 0  4636
2 37792  98.2304  80.8863 0060104 234.1629 125.3992 14.72882606 72236
APRIZESAT 6             
1 37793U 11044F   12355.15548695  .00000583  00000-0  10400-3 0  4830
2 37793  98.2264  78.6008 0048062 237.6169 122.0386 14.70169930 72107
ALMASAT-1               
1 38078U 12006B   12355.12873776  .00034303  00000-0  90511-3 0  8410
2 38078  69.4783 253.8559 0726940  14.5489 347.5308 14.16968375 43817
